{
  "addressbook": [
    {
      "fullName": "Balram Singh",
      "address": "No location",
      "phoneNumber": "9469091234",
      "city": "Jaipur",
      "state": "Rajasthan",
      "zip": "123456",
      "id": 1
    },
    {
      "fullName": "Balram Singh",
      "address": "No location",
      "phoneNumber": "9469091234",
      "city": "Jaipur",
      "state": "Rajasthan",
      "zip": "123456",
      "id": 2
    },
    {
      "fullName": "Akshit Singh",
      "address": "no address",
      "phoneNumber": "9469096543",
      "city": "Jaipur",
      "state": "Rajasthan",
      "zip": "654321",
      "id": 3
    },
    {
      "fullName": "Amrita",
      "address": "asdasd",
      "phoneNumber": "9812345678",
      "city": "Delhi",
      "state": "Delhi",
      "zip": "453627",
      "id": 4
    },
    {
      "fullName": "Ssd",
      "address": "sds",
      "phoneNumber": "sad",
      "city": "Delhi",
      "state": "Rajasthan",
      "zip": "dsdsd",
      "id": 5
    },
    {
      "fullName": "Bal",
      "address": "Hiii",
      "phoneNumber": "12 1212121212",
      "city": "Jaipur",
      "state": "",
      "zip": "122323",
      "id": 6
    },
    {
      "fullName": "Bal",
      "address": "Hiii",
      "phoneNumber": "12 1212121212",
      "city": "Jaipur",
      "state": "",
      "zip": "122323",
      "id": 7
    },
    {
      "fullName": "Bal",
      "address": "Hiii",
      "phoneNumber": "12 1212121212",
      "city": "Jaipur",
      "state": "Rajasthan",
      "zip": "122323",
      "id": 8
    }
  ]
}